[
    {
        "Altitude(m)": 558185.6305569512,
        "Argument of Periapsis(deg)": 0.033114955553567506,
        "Eccentricity": 0.0,
        "Inclination(deg)": 53.0,
        "Latitude(deg)": -17.76221249486353,
        "Longitude(deg)": 87.12147273269572,
        "Mean Anomaly(deg)": -22.26923566211199,
        "RAAN(deg)": 204.95071684264008,
        "Satellite Name": "Starlink Shell 1 919",
        "Satellite Number": 919,
        "Semi-Major Axis(m)": 6931778.249405717,
        "Time(s)": 950
    },
    {
        "Altitude(m)": 558036.3481289095,
        "Argument of Periapsis(deg)": 0.03346353403307874,
        "Eccentricity": 0.0,
        "Inclination(deg)": 53.0,
        "Latitude(deg)": -17.27345864432601,
        "Longitude(deg)": 87.49372499924922,
        "Mean Anomaly(deg)": -21.642404458555315,
        "RAAN(deg)": 204.9501980725626,
        "Satellite Name": "Starlink Shell 1 919",
        "Satellite Number": 919,
        "Semi-Major Axis(m)": 6931778.249405717,
        "Time(s)": 960
    },
    {
        "Altitude(m)": 557888.8231274979,
        "Argument of Periapsis(deg)": 0.03381211251258998,
        "Eccentricity": 0.0,
        "Inclination(deg)": 53.0,
        "Latitude(deg)": -16.78381990788244,
        "Longitude(deg)": 87.86381446613264,
        "Mean Anomaly(deg)": -21.01557325499865,
        "RAAN(deg)": 204.94967930248512,
        "Satellite Name": "Starlink Shell 1 919",
        "Satellite Number": 919,
        "Semi-Major Axis(m)": 6931778.249405717,
        "Time(s)": 970
    },
    {
        "Altitude(m)": 557743.1047417993,
        "Argument of Periapsis(deg)": 0.034160690992101214,
        "Eccentricity": 0.0,
        "Inclination(deg)": 53.0,
        "Latitude(deg)": -16.29332647107315,
        "Longitude(deg)": 88.2318134223117,
        "Mean Anomaly(deg)": -20.388742051441902,
        "RAAN(deg)": 204.94916053240766,
        "Satellite Name": "Starlink Shell 1 919",
        "Satellite Number": 919,
        "Semi-Major Axis(m)": 6931778.249405717,
        "Time(s)": 980
    },
    {
        "Altitude(m)": 557599.2412074729,
        "Argument of Periapsis(deg)": 0.034509269471612446,
        "Eccentricity": 0.0,
        "Inclination(deg)": 53.0,
        "Latitude(deg)": -15.802008059342578,
        "Longitude(deg)": 88.59779379266415,
        "Mean Anomaly(deg)": -19.761910847885254,
        "RAAN(deg)": 204.9486417623302,
        "Satellite Name": "Starlink Shell 1 919",
        "Satellite Number": 919,
        "Semi-Major Axis(m)": 6931778.249405717,
        "Time(s)": 990
    }
]